[{"OBJECT_NAME":"KUIPER-00056","OBJECT_ID":"2025-134S","EPOCH":"2026-03-09T14:44:55.990752","MEAN_MOTION":14.83541877,"ECCENTRICITY":9.82e-5,"INCLINATION":51.9023,"RA_OF_ASC_NODE":223.5207,"ARG_OF_PERICENTER":62.1388,"MEAN_ANOMALY":297.9675,"EPHEMERIS_TYPE":0,"CLASSIFICATION_TYPE":"U","NORAD_CAT_ID":64516,"ELEMENT_SET_NO":999,"REV_AT_EPOCH":4020,"BSTAR":0.00069839,"MEAN_MOTION_DOT":5.582e-5,"MEAN_MOTION_DDOT":0},{"OBJECT_NAME":"GEESAT-6 04","OBJECT_ID":"2025-214E","EPOCH":"2026-03-09T23:39:16.844832","MEAN_MOTION":14.829845,"ECCENTRICITY":0.00094543,"INCLINATION":49.9846,"RA_OF_ASC_NODE":47.7418,"ARG_OF_PERICENTER":207.5517,"MEAN_ANOMALY":152.4921,"EPHEMERIS_TYPE":0,"CLASSIFICATION_TYPE":"U","NORAD_CAT_ID":65716,"ELEMENT_SET_NO":999,"REV_AT_EPOCH":2478,"BSTAR":0.00038451427,"MEAN_MOTION_DOT":2.934e-5,"MEAN_MOTION_DDOT":0}]
